STARLINK-36754          
1 67725U 26026E   26067.91668981  .00063198  00000+0  11557-2 0  9999
2 67725  97.2850 122.4157 0001632  87.5787 131.5790 15.49155498  5198
STARLINK-36755          
1 67726U 26026F   26067.91668981  .00114618  00000+0  20852-2 0  9992
2 67726  97.2851 122.3908 0001435  76.8046  83.9680 15.49097349  5191
STARLINK-36741          
1 67727U 26026G   26067.91668981  .00120242  00000+0  21863-2 0  9996
2 67727  97.2852 122.4060 0001232  73.7005 122.4195 15.49091938  5197
STARLINK-36757          
1 67728U 26026H   26067.91668981 -.01804880  00000+0 -35244-1 0  9994
2 67728  97.2837 122.4593 0001702  86.3911 235.9909 15.50857482  5199
STARLINK-36751          
1 67729U 26026J   26067.91668981 -.01869164  00000+0 -35882-1 0  9999
2 67729  97.2836 122.4734 0001524  81.8440 268.9750 15.51460346  5195
STARLINK-36747          
1 67730U 26026K   26067.91668981 -.01896886  00000+0 -36605-1 0  9996
2 67730  97.2840 122.4664 0001431  79.6371 260.1172 15.51370494  5195
STARLINK-36315          
1 67731U 26026L   26067.91668981 -.01795765  00000+0 -34115-1 0  9995
2 67731  97.2847 122.4779 0001506  75.7555 284.9739 15.51608611  5192
STARLINK-36260          
1 67732U 26026M   26067.91668981 -.02010874  00000+0 -37347-1 0  9998
2 67732  97.2840 122.4811 0001321  67.7626 309.0795 15.52072727  5193
STARLINK-36746          
1 67733U 26026N   26067.94526947  .00046480  00000+0  85095-3 0  9990
2 67733  97.2848 122.2805 0001104  99.5759 260.5617 15.49198982  3990
STARLINK-36749          
1 67734U 26026P   26067.91668981  .00119742  00000+0  21770-2 0  9994
2 67734  97.2850 122.4177 0001608  82.5699 140.1272 15.49096405  5193
STARLINK-36691          
1 67735U 26026Q   26067.91668981 -.01891220  00000+0 -34584-1 0  9992
2 67735  97.2843 122.5063 0001618  64.8250   3.3271 15.52847710  5329
STARLINK-36317          
1 67736U 26026R   26067.91668981 -.01877577  00000+0 -34629-1 0  9992
2 67736  97.2844 122.4995 0001541  67.5922 344.9890 15.52586919  5192
