CCSDS_OMM_VERS = 2.0
CREATION_DATE  = 
ORIGINATOR     = 

OBJECT_NAME    = STARLINK-36754
OBJECT_ID      = 2026-026E
CENTER_NAME    = EARTH
REF_FRAME      = TEME
TIME_SYSTEM    = UTC
MEAN_ELEMENT_THEORY = SGP/SGP4

EPOCH          = 2026-03-08T22:00:01.999584
MEAN_MOTION    = 15.49155498
ECCENTRICITY   = .00016324
INCLINATION    = 97.2850
RA_OF_ASC_NODE = 122.4157
ARG_OF_PERICENTER = 87.5787
MEAN_ANOMALY   = 131.5790

EPHEMERIS_TYPE = 0
CLASSIFICATION_TYPE = U
NORAD_CAT_ID   = 67725
ELEMENT_SET_NO = 999
REV_AT_EPOCH   = 519
BSTAR          = .11557113E-2
MEAN_MOTION_DOT = .63198E-3
MEAN_MOTION_DDOT = 0

CCSDS_OMM_VERS = 2.0
CREATION_DATE  = 
ORIGINATOR     = 

OBJECT_NAME    = STARLINK-36755
OBJECT_ID      = 2026-026F
CENTER_NAME    = EARTH
REF_FRAME      = TEME
TIME_SYSTEM    = UTC
MEAN_ELEMENT_THEORY = SGP/SGP4

EPOCH          = 2026-03-08T22:00:01.999584
MEAN_MOTION    = 15.49097349
ECCENTRICITY   = .00014353
INCLINATION    = 97.2851
RA_OF_ASC_NODE = 122.3908
ARG_OF_PERICENTER = 76.8046
MEAN_ANOMALY   = 83.9680

EPHEMERIS_TYPE = 0
CLASSIFICATION_TYPE = U
NORAD_CAT_ID   = 67726
ELEMENT_SET_NO = 999
REV_AT_EPOCH   = 519
BSTAR          = .20852474E-2
MEAN_MOTION_DOT = .114618E-2
MEAN_MOTION_DDOT = 0

CCSDS_OMM_VERS = 2.0
CREATION_DATE  = 
ORIGINATOR     = 

OBJECT_NAME    = STARLINK-36741
OBJECT_ID      = 2026-026G
CENTER_NAME    = EARTH
REF_FRAME      = TEME
TIME_SYSTEM    = UTC
MEAN_ELEMENT_THEORY = SGP/SGP4

EPOCH          = 2026-03-08T22:00:01.999584
MEAN_MOTION    = 15.49091938
ECCENTRICITY   = .00012325
INCLINATION    = 97.2852
RA_OF_ASC_NODE = 122.4060
ARG_OF_PERICENTER = 73.7005
MEAN_ANOMALY   = 122.4195

EPHEMERIS_TYPE = 0
CLASSIFICATION_TYPE = U
NORAD_CAT_ID   = 67727
ELEMENT_SET_NO = 999
REV_AT_EPOCH   = 519
BSTAR          = .21863312E-2
MEAN_MOTION_DOT = .120242E-2
MEAN_MOTION_DDOT = 0

CCSDS_OMM_VERS = 2.0
CREATION_DATE  = 
ORIGINATOR     = 

OBJECT_NAME    = STARLINK-36757
OBJECT_ID      = 2026-026H
CENTER_NAME    = EARTH
REF_FRAME      = TEME
TIME_SYSTEM    = UTC
MEAN_ELEMENT_THEORY = SGP/SGP4

EPOCH          = 2026-03-08T22:00:01.999584
MEAN_MOTION    = 15.50857482
ECCENTRICITY   = .00017028
INCLINATION    = 97.2837
RA_OF_ASC_NODE = 122.4593
ARG_OF_PERICENTER = 86.3911
MEAN_ANOMALY   = 235.9909

EPHEMERIS_TYPE = 0
CLASSIFICATION_TYPE = U
NORAD_CAT_ID   = 67728
ELEMENT_SET_NO = 999
REV_AT_EPOCH   = 519
BSTAR          = -.35243609E-1
MEAN_MOTION_DOT = -.180488E-1
MEAN_MOTION_DDOT = 0

CCSDS_OMM_VERS = 2.0
CREATION_DATE  = 
ORIGINATOR     = 

OBJECT_NAME    = STARLINK-36751
OBJECT_ID      = 2026-026J
CENTER_NAME    = EARTH
REF_FRAME      = TEME
TIME_SYSTEM    = UTC
MEAN_ELEMENT_THEORY = SGP/SGP4

EPOCH          = 2026-03-08T22:00:01.999584
MEAN_MOTION    = 15.51460346
ECCENTRICITY   = .00015246
INCLINATION    = 97.2836
RA_OF_ASC_NODE = 122.4734
ARG_OF_PERICENTER = 81.8440
MEAN_ANOMALY   = 268.9750

EPHEMERIS_TYPE = 0
CLASSIFICATION_TYPE = U
NORAD_CAT_ID   = 67729
ELEMENT_SET_NO = 999
REV_AT_EPOCH   = 519
BSTAR          = -.3588237E-1
MEAN_MOTION_DOT = -.1869164E-1
MEAN_MOTION_DDOT = 0

CCSDS_OMM_VERS = 2.0
CREATION_DATE  = 
ORIGINATOR     = 

OBJECT_NAME    = STARLINK-36747
OBJECT_ID      = 2026-026K
CENTER_NAME    = EARTH
REF_FRAME      = TEME
TIME_SYSTEM    = UTC
MEAN_ELEMENT_THEORY = SGP/SGP4

EPOCH          = 2026-03-08T22:00:01.999584
MEAN_MOTION    = 15.51370494
ECCENTRICITY   = .00014312
INCLINATION    = 97.2840
RA_OF_ASC_NODE = 122.4664
ARG_OF_PERICENTER = 79.6371
MEAN_ANOMALY   = 260.1172

EPHEMERIS_TYPE = 0
CLASSIFICATION_TYPE = U
NORAD_CAT_ID   = 67730
ELEMENT_SET_NO = 999
REV_AT_EPOCH   = 519
BSTAR          = -.36605035E-1
MEAN_MOTION_DOT = -.1896886E-1
MEAN_MOTION_DDOT = 0

CCSDS_OMM_VERS = 2.0
CREATION_DATE  = 
ORIGINATOR     = 

OBJECT_NAME    = STARLINK-36315
OBJECT_ID      = 2026-026L
CENTER_NAME    = EARTH
REF_FRAME      = TEME
TIME_SYSTEM    = UTC
MEAN_ELEMENT_THEORY = SGP/SGP4

EPOCH          = 2026-03-08T22:00:01.999584
MEAN_MOTION    = 15.51608611
ECCENTRICITY   = .00015066
INCLINATION    = 97.2847
RA_OF_ASC_NODE = 122.4779
ARG_OF_PERICENTER = 75.7555
MEAN_ANOMALY   = 284.9739

EPHEMERIS_TYPE = 0
CLASSIFICATION_TYPE = U
NORAD_CAT_ID   = 67731
ELEMENT_SET_NO = 999
REV_AT_EPOCH   = 519
BSTAR          = -.34114908E-1
MEAN_MOTION_DOT = -.1795765E-1
MEAN_MOTION_DDOT = 0

CCSDS_OMM_VERS = 2.0
CREATION_DATE  = 
ORIGINATOR     = 

OBJECT_NAME    = STARLINK-36260
OBJECT_ID      = 2026-026M
CENTER_NAME    = EARTH
REF_FRAME      = TEME
TIME_SYSTEM    = UTC
MEAN_ELEMENT_THEORY = SGP/SGP4

EPOCH          = 2026-03-08T22:00:01.999584
MEAN_MOTION    = 15.52072727
ECCENTRICITY   = .00013214
INCLINATION    = 97.2840
RA_OF_ASC_NODE = 122.4811
ARG_OF_PERICENTER = 67.7626
MEAN_ANOMALY   = 309.0795

EPHEMERIS_TYPE = 0
CLASSIFICATION_TYPE = U
NORAD_CAT_ID   = 67732
ELEMENT_SET_NO = 999
REV_AT_EPOCH   = 519
BSTAR          = -.37347498E-1
MEAN_MOTION_DOT = -.2010874E-1
MEAN_MOTION_DDOT = 0

CCSDS_OMM_VERS = 2.0
CREATION_DATE  = 
ORIGINATOR     = 

OBJECT_NAME    = STARLINK-36746
OBJECT_ID      = 2026-026N
CENTER_NAME    = EARTH
REF_FRAME      = TEME
TIME_SYSTEM    = UTC
MEAN_ELEMENT_THEORY = SGP/SGP4

EPOCH          = 2026-03-08T22:41:11.282208
MEAN_MOTION    = 15.49198982
ECCENTRICITY   = .00011042
INCLINATION    = 97.2848
RA_OF_ASC_NODE = 122.2805
ARG_OF_PERICENTER = 99.5759
MEAN_ANOMALY   = 260.5617

EPHEMERIS_TYPE = 0
CLASSIFICATION_TYPE = U
NORAD_CAT_ID   = 67733
ELEMENT_SET_NO = 999
REV_AT_EPOCH   = 399
BSTAR          = .85094884E-3
MEAN_MOTION_DOT = .4648E-3
MEAN_MOTION_DDOT = 0

CCSDS_OMM_VERS = 2.0
CREATION_DATE  = 
ORIGINATOR     = 

OBJECT_NAME    = STARLINK-36749
OBJECT_ID      = 2026-026P
CENTER_NAME    = EARTH
REF_FRAME      = TEME
TIME_SYSTEM    = UTC
MEAN_ELEMENT_THEORY = SGP/SGP4

EPOCH          = 2026-03-08T22:00:01.999584
MEAN_MOTION    = 15.49096405
ECCENTRICITY   = .00016082
INCLINATION    = 97.2850
RA_OF_ASC_NODE = 122.4177
ARG_OF_PERICENTER = 82.5699
MEAN_ANOMALY   = 140.1272

EPHEMERIS_TYPE = 0
CLASSIFICATION_TYPE = U
NORAD_CAT_ID   = 67734
ELEMENT_SET_NO = 999
REV_AT_EPOCH   = 519
BSTAR          = .21770368E-2
MEAN_MOTION_DOT = .119742E-2
MEAN_MOTION_DDOT = 0

CCSDS_OMM_VERS = 2.0
CREATION_DATE  = 
ORIGINATOR     = 

OBJECT_NAME    = STARLINK-36691
OBJECT_ID      = 2026-026Q
CENTER_NAME    = EARTH
REF_FRAME      = TEME
TIME_SYSTEM    = UTC
MEAN_ELEMENT_THEORY = SGP/SGP4

EPOCH          = 2026-03-08T22:00:01.999584
MEAN_MOTION    = 15.52847710
ECCENTRICITY   = .00016185
INCLINATION    = 97.2843
RA_OF_ASC_NODE = 122.5063
ARG_OF_PERICENTER = 64.8250
MEAN_ANOMALY   = 3.3271

EPHEMERIS_TYPE = 0
CLASSIFICATION_TYPE = U
NORAD_CAT_ID   = 67735
ELEMENT_SET_NO = 999
REV_AT_EPOCH   = 532
BSTAR          = -.34584261E-1
MEAN_MOTION_DOT = -.189122E-1
MEAN_MOTION_DDOT = 0

CCSDS_OMM_VERS = 2.0
CREATION_DATE  = 
ORIGINATOR     = 

OBJECT_NAME    = STARLINK-36317
OBJECT_ID      = 2026-026R
CENTER_NAME    = EARTH
REF_FRAME      = TEME
TIME_SYSTEM    = UTC
MEAN_ELEMENT_THEORY = SGP/SGP4

EPOCH          = 2026-03-08T22:00:01.999584
MEAN_MOTION    = 15.52586919
ECCENTRICITY   = .00015417
INCLINATION    = 97.2844
RA_OF_ASC_NODE = 122.4995
ARG_OF_PERICENTER = 67.5922
MEAN_ANOMALY   = 344.9890

EPHEMERIS_TYPE = 0
CLASSIFICATION_TYPE = U
NORAD_CAT_ID   = 67736
ELEMENT_SET_NO = 999
REV_AT_EPOCH   = 519
BSTAR          = -.34628801E-1
MEAN_MOTION_DOT = -.1877577E-1
MEAN_MOTION_DDOT = 0

